GLOBALSTAR M024         
1 25883U 99043A   26025.35138882 -.00000008  00000+0  20316-2 0  9996
2 25883  51.9978 239.3425 0002649  90.2959  80.1259 11.10167357139538
GLOBALSTAR M027         
1 25884U 99043B   26025.07038194 -.00000018  00000+0  17240-2 0  9994
2 25884  52.0248 324.2454 0021631 350.6651   9.3738 11.04372724165758
GLOBALSTAR M054         
1 25885U 99043C   26025.38703054 -.00000097  00000+0 -65567-3 0  9997
2 25885  52.0149  53.5448 0004985 197.1571 265.1331 11.39223539144375
GLOBALSTAR M053         
1 25886U 99043D   26025.30895743 -.00000054  00000+0  43394-3 0  9993
2 25886  52.0011  13.1514 0003489  98.7389  11.1961 11.27669530144506
GLOBALSTAR M058         
1 25907U 99049A   26024.96487111 -.00000060  00000+0  33105-3 0  9996
2 25907  51.9914 236.9670 0002070   5.1301 354.9555 11.93207696568016
GLOBALSTAR M050         
1 25908U 99049B   26025.34021875 -.00000132  00000+0 -49076-3 0  9996
2 25908  51.9960 227.0422 0010118 111.1239  60.3339 12.07465197175025
GLOBALSTAR M033         
1 25909U 99049C   26025.32417846 -.00000016  00000+0  73034-3 0  9993
2 25909  51.9914  83.5759 0013910   3.5100 356.5843 12.20300174562867
GLOBALSTAR M055         
1 25910U 99049D   26025.45001495 -.00000074  00000+0  17412-3 0  9990
2 25910  52.0020  83.1439 0006900 228.7369 131.2889 12.29439833195627
